{
  "type": "FeatureCollection",
  "features": [
    {
      "type": "Feature",
      "properties": {
        "norad_id": 55973,
        "name": "TIANMU-1 03",
        "group": "weather",
        "lat": 30.781951288981393,
        "lon": 154.65306631039965,
        "alt_km": 438.3658747580621,
        "timestamp": "2025-12-22T05:49:03.125026+00:00",
        "meta_object_name": "TIANMU-1 03",
        "meta_object_id": "2023-039A",
        "meta_epoch": "2025-12-21T20:20:01.058208",
        "meta_mean_motion": 15.41169269,
        "meta_eccentricity": 0.0003965,
        "meta_inclination": 97.5108,
        "meta_ra_of_asc_node": 158.7546,
        "meta_arg_of_pericenter": 34.7713,
        "meta_mean_anomaly": 325.3792,
        "meta_ephemeris_type": 0,
        "meta_classification_type": "U",
        "meta_norad_cat_id": 55973,
        "meta_element_set_no": 999,
        "meta_rev_at_epoch": 15346,
        "meta_bstar": 0.00031759,
        "meta_mean_motion_dot": 0.0001309,
        "meta_mean_motion_ddot": 0,
        "tle_line1": "1 55973U 23039A   25355.84723447  .00013090  00000+0  31759-3 0  9995",
        "tle_line2": "2 55973  97.5108 158.7546 0003965  34.7713 325.3792 15.41169269153469"
      },
      "geometry": {
        "type": "Point",
        "coordinates": [
          154.65306631039965,
          30.781951288981393
        ]
      }
    },
    {
      "type": "Feature",
      "properties": {
        "norad_id": 55974,
        "name": "TIANMU-1 04",
        "group": "weather",
        "lat": 22.901578836434293,
        "lon": -18.4597644231804,
        "alt_km": 443.3294041225772,
        "timestamp": "2025-12-22T05:49:03.125036+00:00",
        "meta_object_name": "TIANMU-1 04",
        "meta_object_id": "2023-039B",
        "meta_epoch": "2025-12-21T21:21:01.033920",
        "meta_mean_motion": 15.41511603,
        "meta_eccentricity": 0.0004595,
        "meta_inclination": 97.5039,
        "meta_ra_of_asc_node": 157.9855,
        "meta_arg_of_pericenter": 28.5784,
        "meta_mean_anomaly": 331.5714,
        "meta_ephemeris_type": 0,
        "meta_classification_type": "U",
        "meta_norad_cat_id": 55974,
        "meta_element_set_no": 999,
        "meta_rev_at_epoch": 15347,
        "meta_bstar": 0.00032652,
        "meta_mean_motion_dot": 0.00013617,
        "meta_mean_motion_ddot": 0,
        "tle_line1": "1 55974U 23039B   25355.88959530  .00013617  00000+0  32652-3 0  9992",
        "tle_line2": "2 55974  97.5039 157.9855 0004595  28.5784 331.5714 15.41511603153473"
      },
      "geometry": {
        "type": "Point",
        "coordinates": [
          -18.4597644231804,
          22.901578836434293
        ]
      }
    },
    {
      "type": "Feature",
      "properties": {
        "norad_id": 55975,
        "name": "TIANMU-1 05",
        "group": "weather",
        "lat": 4.213972494801718,
        "lon": -20.602418417381543,
        "alt_km": 446.8404237423001,
        "timestamp": "2025-12-22T05:49:03.125047+00:00",
        "meta_object_name": "TIANMU-1 05",
        "meta_object_id": "2023-039C",
        "meta_epoch": "2025-12-21T21:15:59.910912",
        "meta_mean_motion": 15.41127137,
        "meta_eccentricity": 0.0004089,
        "meta_inclination": 97.5086,
        "meta_ra_of_asc_node": 158.4746,
        "meta_arg_of_pericenter": 53.4538,
        "meta_mean_anomaly": 306.7084,
        "meta_ephemeris_type": 0,
        "meta_classification_type": "U",
        "meta_norad_cat_id": 55975,
        "meta_element_set_no": 999,
        "meta_rev_at_epoch": 15345,
        "meta_bstar": 0.00032419,
        "meta_mean_motion_dot": 0.00013346,
        "meta_mean_motion_ddot": 0,
        "tle_line1": "1 55975U 23039C   25355.88611008  .00013346  00000+0  32419-3 0  9998",
        "tle_line2": "2 55975  97.5086 158.4746 0004089  53.4538 306.7084 15.41127137153450"
      },
      "geometry": {
        "type": "Point",
        "coordinates": [
          -20.602418417381543,
          4.213972494801718
        ]
      }
    },
    {
      "type": "Feature",
      "properties": {
        "norad_id": 55976,
        "name": "TIANMU-1 06",
        "group": "weather",
        "lat": 33.075146963297826,
        "lon": -15.757616838376666,
        "alt_km": 440.06664759109026,
        "timestamp": "2025-12-22T05:49:03.125061+00:00",
        "meta_object_name": "TIANMU-1 06",
        "meta_object_id": "2023-039D",
        "meta_epoch": "2025-12-21T21:23:42.455904",
        "meta_mean_motion": 15.41563082,
        "meta_eccentricity": 0.0004364,
        "meta_inclination": 97.5097,
        "meta_ra_of_asc_node": 158.9528,
        "meta_arg_of_pericenter": 47.5981,
        "meta_mean_anomaly": 312.5634,
        "meta_ephemeris_type": 0,
        "meta_classification_type": "U",
        "meta_norad_cat_id": 55976,
        "meta_element_set_no": 999,
        "meta_rev_at_epoch": 15347,
        "meta_bstar": 0.00032474,
        "meta_mean_motion_dot": 0.00013565,
        "meta_mean_motion_ddot": 0,
        "tle_line1": "1 55976U 23039D   25355.89146361  .00013565  00000+0  32474-3 0  9999",
        "tle_line2": "2 55976  97.5097 158.9528 0004364  47.5981 312.5634 15.41563082153479"
      },
      "geometry": {
        "type": "Point",
        "coordinates": [
          -15.757616838376666,
          33.075146963297826
        ]
      }
    },
    {
      "type": "Feature",
      "properties": {
        "norad_id": 56232,
        "name": "FENGYUN 3G",
        "group": "weather",
        "lat": 5.338402099203498,
        "lon": -177.10233220524117,
        "alt_km": 410.6559351636779,
        "timestamp": "2025-12-22T05:49:03.125072+00:00",
        "meta_object_name": "FENGYUN 3G",
        "meta_object_id": "2023-055A",
        "meta_epoch": "2025-12-21T20:31:45.115392",
        "meta_mean_motion": 15.54147027,
        "meta_eccentricity": 0.0009247,
        "meta_inclination": 49.9919,
        "meta_ra_of_asc_node": 180.3959,
        "meta_arg_of_pericenter": 189.7825,
        "meta_mean_anomaly": 170.2964,
        "meta_ephemeris_type": 0,
        "meta_classification_type": "U",
        "meta_norad_cat_id": 56232,
        "meta_element_set_no": 999,
        "meta_rev_at_epoch": 15244,
        "meta_bstar": 0.00042453,
        "meta_mean_motion_dot": 0.0002783,
        "meta_mean_motion_ddot": 0,
        "tle_line1": "1 56232U 23055A   25355.85538328  .00027830  00000+0  42453-3 0  9995",
        "tle_line2": "2 56232  49.9919 180.3959 0009247 189.7825 170.2964 15.54147027152449"
      },
      "geometry": {
        "type": "Point",
        "coordinates": [
          -177.10233220524117,
          5.338402099203498
        ]
      }
    },
    {
      "type": "Feature",
      "properties": {
        "norad_id": 57166,
        "name": "METEOR-M2 3",
        "group": "weather",
        "lat": -24.821859993559794,
        "lon": 53.646196735162476,
        "alt_km": 814.8474445740458,
        "timestamp": "2025-12-22T05:49:03.125083+00:00",
        "meta_object_name": "METEOR-M2 3",
        "meta_object_id": "2023-091A",
        "meta_epoch": "2025-12-21T19:49:02.231328",
        "meta_mean_motion": 14.24027118,
        "meta_eccentricity": 0.000341,
        "meta_inclination": 98.6364,
        "meta_ra_of_asc_node": 49.2059,
        "meta_arg_of_pericenter": 341.267,
        "meta_mean_anomaly": 18.8383,
        "meta_ephemeris_type": 0,
        "meta_classification_type": "U",
        "meta_norad_cat_id": 57166,
        "meta_element_set_no": 999,
        "meta_rev_at_epoch": 12927,
        "meta_bstar": 2.5165e-05,
        "meta_mean_motion_dot": 1.4e-07,
        "meta_mean_motion_ddot": 0,
        "tle_line1": "1 57166U 23091A   25355.82572027  .00000014  00000+0  25165-4 0  9990",
        "tle_line2": "2 57166  98.6364  49.2059 0003410 341.2670  18.8383 14.24027118129275"
      },
      "geometry": {
        "type": "Point",
        "coordinates": [
          53.646196735162476,
          -24.821859993559794
        ]
      }
    },
    {
      "type": "Feature",
      "properties": {
        "norad_id": 57399,
        "name": "TIANMU-1 07",
        "group": "weather",
        "lat": 61.498752694963784,
        "lon": -120.48792500533274,
        "alt_km": 473.4934825340815,
        "timestamp": "2025-12-22T05:49:03.125094+00:00",
        "meta_object_name": "TIANMU-1 07",
        "meta_object_id": "2023-101A",
        "meta_epoch": "2025-12-21T19:52:34.657824",
        "meta_mean_motion": 15.28190297,
        "meta_eccentricity": 0.0005229,
        "meta_inclination": 97.2862,
        "meta_ra_of_asc_node": 45.4777,
        "meta_arg_of_pericenter": 58.5446,
        "meta_mean_anomaly": 301.6305,
        "meta_ephemeris_type": 0,
        "meta_classification_type": "U",
        "meta_norad_cat_id": 57399,
        "meta_element_set_no": 999,
        "meta_rev_at_epoch": 13454,
        "meta_bstar": 0.00023232,
        "meta_mean_motion_dot": 6.312e-05,
        "meta_mean_motion_ddot": 0,
        "tle_line1": "1 57399U 23101A   25355.82817891  .00006312  00000+0  23232-3 0  9990",
        "tle_line2": "2 57399  97.2862  45.4777 0005229  58.5446 301.6305 15.28190297134542"
      },
      "geometry": {
        "type": "Point",
        "coordinates": [
          -120.48792500533274,
          61.498752694963784
        ]
      }
    }
  ]
}